[{"OBJECT_NAME":"ONEWEB-0116","OBJECT_ID":"2021-025E","EPOCH":"2026-03-09T17:09:23.888448","MEAN_MOTION":13.13470381,"ECCENTRICITY":0.00016044,"INCLINATION":87.9044,"RA_OF_ASC_NODE":339.9986,"ARG_OF_PERICENTER":80.5238,"MEAN_ANOMALY":279.6072,"EPHEMERIS_TYPE":0,"CLASSIFICATION_TYPE":"U","NORAD_CAT_ID":48046,"ELEMENT_SET_NO":999,"REV_AT_EPOCH":24059,"BSTAR":-0.00023086633,"MEAN_MOTION_DOT":-7.2e-7,"MEAN_MOTION_DDOT":0},{"OBJECT_NAME":"COSMOS 249 DEB","OBJECT_ID":"1968-091BB","EPOCH":"2026-03-05T19:33:50.235264","MEAN_MOTION":13.30346974,"ECCENTRICITY":0.05679379,"INCLINATION":62.2702,"RA_OF_ASC_NODE":210.8286,"ARG_OF_PERICENTER":225.5565,"MEAN_ANOMALY":129.7639,"EPHEMERIS_TYPE":0,"CLASSIFICATION_TYPE":"U","NORAD_CAT_ID":3794,"ELEMENT_SET_NO":999,"REV_AT_EPOCH":69632,"BSTAR":0.0051064162,"MEAN_MOTION_DOT":5.813e-5,"MEAN_MOTION_DDOT":0}]
